[{"OBJECT_NAME":"SHIYAN-33","OBJECT_ID":"2026-064A","EPOCH":"2026-04-25T21:49:54.074496","MEAN_MOTION":15.23421126,"ECCENTRICITY":0.00155492,"INCLINATION":97.4636,"RA_OF_ASC_NODE":191.6998,"ARG_OF_PERICENTER":127.396,"MEAN_ANOMALY":232.8695,"EPHEMERIS_TYPE":0,"CLASSIFICATION_TYPE":"U","NORAD_CAT_ID":68405,"ELEMENT_SET_NO":999,"REV_AT_EPOCH":453,"BSTAR":0.00025773731,"MEAN_MOTION_DOT":6.085e-5,"MEAN_MOTION_DDOT":0},{"OBJECT_NAME":"LPNTSAT-001 (IOD-1)","OBJECT_ID":"2026-065A","EPOCH":"2026-04-25T14:53:51.059040","MEAN_MOTION":15.18368758,"ECCENTRICITY":0.00168933,"INCLINATION":97.4087,"RA_OF_ASC_NODE":357.2309,"ARG_OF_PERICENTER":181.6655,"MEAN_ANOMALY":178.4526,"EPHEMERIS_TYPE":0,"CLASSIFICATION_TYPE":"U","NORAD_CAT_ID":68408,"ELEMENT_SET_NO":999,"REV_AT_EPOCH":428,"BSTAR":0.00011668119,"MEAN_MOTION_DOT":2.338e-5,"MEAN_MOTION_DDOT":0},{"OBJECT_NAME":"LPNTSAT-002 (IOD-2)","OBJECT_ID":"2026-065B","EPOCH":"2026-04-25T14:51:54.895968","MEAN_MOTION":15.18538706,"ECCENTRICITY":0.00140945,"INCLINATION":97.4078,"RA_OF_ASC_NODE":357.2279,"ARG_OF_PERICENTER":175.9,"MEAN_ANOMALY":184.2352,"EPHEMERIS_TYPE":0,"CLASSIFICATION_TYPE":"U","NORAD_CAT_ID":68409,"ELEMENT_SET_NO":999,"REV_AT_EPOCH":426,"BSTAR":0.00034907999,"MEAN_MOTION_DOT":7.16e-5,"MEAN_MOTION_DDOT":0},{"OBJECT_NAME":"XINZHENGCHENG-01","OBJECT_ID":"2026-066A","EPOCH":"2026-04-25T22:10:20.112096","MEAN_MOTION":14.88359134,"ECCENTRICITY":0.00275773,"INCLINATION":84.9638,"RA_OF_ASC_NODE":260.9911,"ARG_OF_PERICENTER":76.8819,"MEAN_ANOMALY":283.5479,"EPHEMERIS_TYPE":0,"CLASSIFICATION_TYPE":"U","NORAD_CAT_ID":68412,"ELEMENT_SET_NO":999,"REV_AT_EPOCH":395,"BSTAR":5.0164839e-5,"MEAN_MOTION_DOT":4.98e-6,"MEAN_MOTION_DDOT":0},{"OBJECT_NAME":"2026-066C","OBJECT_ID":"2026-066C","EPOCH":"2026-04-25T22:06:48.325824","MEAN_MOTION":14.88530665,"ECCENTRICITY":0.00281835,"INCLINATION":84.9637,"RA_OF_ASC_NODE":260.9888,"ARG_OF_PERICENTER":77.5916,"MEAN_ANOMALY":282.8459,"EPHEMERIS_TYPE":0,"CLASSIFICATION_TYPE":"U","NORAD_CAT_ID":68414,"ELEMENT_SET_NO":999,"REV_AT_EPOCH":395,"BSTAR":0.00012925079,"MEAN_MOTION_DOT":1.24e-5,"MEAN_MOTION_DDOT":0},{"OBJECT_NAME":"2026-066D","OBJECT_ID":"2026-066D","EPOCH":"2026-04-25T22:08:40.093728","MEAN_MOTION":14.88458211,"ECCENTRICITY":0.00275217,"INCLINATION":84.9636,"RA_OF_ASC_NODE":260.9899,"ARG_OF_PERICENTER":77.4357,"MEAN_ANOMALY":282.9942,"EPHEMERIS_TYPE":0,"CLASSIFICATION_TYPE":"U","NORAD_CAT_ID":68415,"ELEMENT_SET_NO":999,"REV_AT_EPOCH":395,"BSTAR":0.00020589938,"MEAN_MOTION_DOT":1.953e-5,"MEAN_MOTION_DDOT":0},{"OBJECT_NAME":"TRANSPORTER-16 OBJECT A","OBJECT_ID":"2026-067A","EPOCH":"2026-04-25T14:15:26.701920","MEAN_MOTION":15.18776562,"ECCENTRICITY":0.00042396,"INCLINATION":97.4506,"RA_OF_ASC_NODE":74.8718,"ARG_OF_PERICENTER":93.756,"MEAN_ANOMALY":266.4159,"EPHEMERIS_TYPE":0,"CLASSIFICATION_TYPE":"U","NORAD_CAT_ID":68416,"ELEMENT_SET_NO":999,"REV_AT_EPOCH":396,"BSTAR":0.00033611424,"MEAN_MOTION_DOT":6.923e-5,"MEAN_MOTION_DDOT":0},{"OBJECT_NAME":"JACK-002","OBJECT_ID":"2026-067B","EPOCH":"2026-04-25T14:16:56.745408","MEAN_MOTION":15.1870907,"ECCENTRICITY":0.00041243,"INCLINATION":97.4528,"RA_OF_ASC_NODE":74.8769,"ARG_OF_PERICENTER":96.1253,"MEAN_ANOMALY":264.0452,"EPHEMERIS_TYPE":0,"CLASSIFICATION_TYPE":"U","NORAD_CAT_ID":68417,"ELEMENT_SET_NO":999,"REV_AT_EPOCH":396,"BSTAR":0.00032218439,"MEAN_MOTION_DOT":6.62e-5,"MEAN_MOTION_DDOT":0},{"OBJECT_NAME":"OPTISAT","OBJECT_ID":"2026-067C","EPOCH":"2026-04-25T14:19:03.443232","MEAN_MOTION":15.18560856,"ECCENTRICITY":0.00041563,"INCLINATION":97.4547,"RA_OF_ASC_NODE":74.8813,"ARG_OF_PERICENTER":105.5694,"MEAN_ANOMALY":254.5999,"EPHEMERIS_TYPE":0,"CLASSIFICATION_TYPE":"U","NORAD_CAT_ID":68418,"ELEMENT_SET_NO":999,"REV_AT_EPOCH":396,"BSTAR":0.00012182229,"MEAN_MOTION_DOT":2.449e-5,"MEAN_MOTION_DDOT":0},{"OBJECT_NAME":"FEMTO-1","OBJECT_ID":"2026-067D","EPOCH":"2026-04-25T14:18:44.980416","MEAN_MOTION":15.18577622,"ECCENTRICITY":0.00035872,"INCLINATION":97.4504,"RA_OF_ASC_NODE":74.8675,"ARG_OF_PERICENTER":88.7367,"MEAN_ANOMALY":271.4278,"EPHEMERIS_TYPE":0,"CLASSIFICATION_TYPE":"U","NORAD_CAT_ID":68419,"ELEMENT_SET_NO":999,"REV_AT_EPOCH":396,"BSTAR":0.0001459816,"MEAN_MOTION_DOT":2.95e-5,"MEAN_MOTION_DDOT":0},{"OBJECT_NAME":"ERMIS-2","OBJECT_ID":"2026-067E","EPOCH":"2026-04-25T14:17:15.731808","MEAN_MOTION":15.18766251,"ECCENTRICITY":0.00036548,"INCLINATION":97.4446,"RA_OF_ASC_NODE":74.8523,"ARG_OF_PERICENTER":81.9989,"MEAN_ANOMALY":278.166,"EPHEMERIS_TYPE":0,"CLASSIFICATION_TYPE":"U","NORAD_CAT_ID":68420,"ELEMENT_SET_NO":999,"REV_AT_EPOCH":396,"BSTAR":0.00047688935,"MEAN_MOTION_DOT":9.852e-5,"MEAN_MOTION_DDOT":0},{"OBJECT_NAME":"TRANSPORTER-16 OBJECT F","OBJECT_ID":"2026-067F","EPOCH":"2026-04-25T12:48:10.203552","MEAN_MOTION":15.18405551,"ECCENTRICITY":0.00029203,"INCLINATION":97.4479,"RA_OF_ASC_NODE":74.791,"ARG_OF_PERICENTER":83.7815,"MEAN_ANOMALY":276.3752,"EPHEMERIS_TYPE":0,"CLASSIFICATION_TYPE":"U","NORAD_CAT_ID":68421,"ELEMENT_SET_NO":999,"REV_AT_EPOCH":395,"BSTAR":0.00020432446,"MEAN_MOTION_DOT":4.136e-5,"MEAN_MOTION_DDOT":0},{"OBJECT_NAME":"TRANSPORTER-16 OBJECT G","OBJECT_ID":"2026-067G","EPOCH":"2026-04-25T12:48:46.250496","MEAN_MOTION":15.18419682,"ECCENTRICITY":0.00028277,"INCLINATION":97.4442,"RA_OF_ASC_NODE":74.779,"ARG_OF_PERICENTER":83.1081,"MEAN_ANOMALY":277.0474,"EPHEMERIS_TYPE":0,"CLASSIFICATION_TYPE":"U","NORAD_CAT_ID":68422,"ELEMENT_SET_NO":999,"REV_AT_EPOCH":395,"BSTAR":0.00033576744,"MEAN_MOTION_DOT":6.844e-5,"MEAN_MOTION_DDOT":0},{"OBJECT_NAME":"SPOQC","OBJECT_ID":"2026-067H","EPOCH":"2026-04-25T12:50:11.421888","MEAN_MOTION":15.18342591,"ECCENTRICITY":0.00026833,"INCLINATION":97.4465,"RA_OF_ASC_NODE":74.7846,"ARG_OF_PERICENTER":93.4356,"MEAN_ANOMALY":266.7185,"EPHEMERIS_TYPE":0,"CLASSIFICATION_TYPE":"U","NORAD_CAT_ID":68423,"ELEMENT_SET_NO":999,"REV_AT_EPOCH":395,"BSTAR":0.00025463728,"MEAN_MOTION_DOT":5.162e-5,"MEAN_MOTION_DDOT":0},{"OBJECT_NAME":"SPACEVAN-002","OBJECT_ID":"2026-067J","EPOCH":"2026-04-25T13:03:04.877280","MEAN_MOTION":15.17835544,"ECCENTRICITY":0.00013705,"INCLINATION":97.4484,"RA_OF_ASC_NODE":74.7786,"ARG_OF_PERICENTER":158.5525,"MEAN_ANOMALY":201.5766,"EPHEMERIS_TYPE":0,"CLASSIFICATION_TYPE":"U","NORAD_CAT_ID":68424,"ELEMENT_SET_NO":999,"REV_AT_EPOCH":395,"BSTAR":0.0002959445,"MEAN_MOTION_DOT":5.923e-5,"MEAN_MOTION_DDOT":0},{"OBJECT_NAME":"ERMIS-3","OBJECT_ID":"2026-067K","EPOCH":"2026-04-25T12:52:17.446656","MEAN_MOTION":15.18255509,"ECCENTRICITY":0.00029435,"INCLINATION":97.455,"RA_OF_ASC_NODE":74.8101,"ARG_OF_PERICENTER":119.0473,"MEAN_ANOMALY":241.1056,"EPHEMERIS_TYPE":0,"CLASSIFICATION_TYPE":"U","NORAD_CAT_ID":68425,"ELEMENT_SET_NO":999,"REV_AT_EPOCH":395,"BSTAR":0.00024176557,"MEAN_MOTION_DOT":4.885e-5,"MEAN_MOTION_DDOT":0}]
