SHIYAN-33               
1 68405U 26064A   26115.90965364  .00006085  00000+0  25774-3 0  9994
2 68405  97.4636 191.6998 0015549 127.3960 232.8695 15.23421126  4539
LPNTSAT-001 (IOD-1)     
1 68408U 26065A   26115.62072985  .00002338  00000+0  11668-3 0  9999
2 68408  97.4087 357.2309 0016893 181.6655 178.4526 15.18368758  4280
LPNTSAT-002 (IOD-2)     
1 68409U 26065B   26115.61938537  .00007160  00000+0  34908-3 0  9993
2 68409  97.4078 357.2279 0014094 175.9000 184.2352 15.18538706  4260
XINZHENGCHENG-01        
1 68412U 26066A   26115.92384389  .00000498  00000+0  50165-4 0  9993
2 68412  84.9638 260.9911 0027577  76.8819 283.5479 14.88359134  3957
2026-066C               
1 68414U 26066C   26115.92139266  .00001240  00000+0  12925-3 0  9994
2 68414  84.9637 260.9888 0028183  77.5916 282.8459 14.88530665  3951
2026-066D               
1 68415U 26066D   26115.92268627  .00001953  00000+0  20590-3 0  9997
2 68415  84.9636 260.9899 0027521  77.4357 282.9942 14.88458211  3950
TRANSPORTER-16 OBJECT A 
1 68416U 26067A   26115.59405905  .00006923  00000+0  33611-3 0  9994
2 68416  97.4506  74.8718 0004239  93.7560 266.4159 15.18776562  3960
JACK-002                
1 68417U 26067B   26115.59510122  .00006620  00000+0  32218-3 0  9999
2 68417  97.4528  74.8769 0004124  96.1253 264.0452 15.18709070  3960
OPTISAT                 
1 68418U 26067C   26115.59656763  .00002449  00000+0  12182-3 0  9995
2 68418  97.4547  74.8813 0004156 105.5694 254.5999 15.18560856  3968
FEMTO-1                 
1 68419U 26067D   26115.59635394  .00002950  00000+0  14598-3 0  9993
2 68419  97.4504  74.8675 0003587  88.7367 271.4278 15.18577622  3961
ERMIS-2                 
1 68420U 26067E   26115.59532097  .00009852  00000+0  47689-3 0  9996
2 68420  97.4446  74.8523 0003654  81.9989 278.1660 15.18766251  3967
TRANSPORTER-16 OBJECT F 
1 68421U 26067F   26115.53345143  .00004136  00000+0  20432-3 0  9992
2 68421  97.4479  74.7910 0002920  83.7815 276.3752 15.18405551  3950
TRANSPORTER-16 OBJECT G 
1 68422U 26067G   26115.53386864  .00006844  00000+0  33577-3 0  9990
2 68422  97.4442  74.7790 0002827  83.1081 277.0474 15.18419682  3951
SPOQC                   
1 68423U 26067H   26115.53485442  .00005162  00000+0  25464-3 0  9991
2 68423  97.4465  74.7846 0002683  93.4356 266.7185 15.18342591  3956
SPACEVAN-002            
1 68424U 26067J   26115.54380645  .00005923  00000+0  29594-3 0  9995
2 68424  97.4484  74.7786 0001370 158.5525 201.5766 15.17835544  3950
ERMIS-3                 
1 68425U 26067K   26115.53631304  .00004885  00000+0  24177-3 0  9994
2 68425  97.4550  74.8101 0002943 119.0473 241.1056 15.18255509  3958
